OBJECT_NAME,OBJECT_ID,EPOCH,MEAN_MOTION,ECCENTRICITY,INCLINATION,RA_OF_ASC_NODE,ARG_OF_PERICENTER,MEAN_ANOMALY,EPHEMERIS_TYPE,CLASSIFICATION_TYPE,NORAD_CAT_ID,ELEMENT_SET_NO,REV_AT_EPOCH,BSTAR,MEAN_MOTION_DOT,MEAN_MOTION_DDOT
HAWK-5A,2022-057AB,2026-07-07T10:06:36.085536,15.52132132,.00040909,97.6627,348.5893,8.2298,351.9020,0,U,52757,999,22948,.22853049E-3,.13718E-3,0
HAWK-6B,2023-011A,2026-07-07T13:49:33.812256,15.23109984,.00030319,40.4971,233.1356,198.5523,161.5176,0,U,55324,999,19095,.119612E-3,.2686E-4,0
HAWK-6C,2023-011C,2026-07-07T13:48:40.149216,15.23110272,.00034065,40.4958,229.9751,185.2736,174.8038,0,U,55326,999,19096,.12876102E-3,.2907E-4,0
HAWK-6A,2023-011D,2026-07-07T13:48:43.014240,15.23111426,.00029472,40.4968,231.6018,183.6819,176.3969,0,U,55327,999,19096,.12815964E-3,.2892E-4,0
HAWK-7A,2023-054P,2026-07-07T08:28:24.478176,15.27577059,.00023301,97.2674,75.1775,6.4575,353.6694,0,U,56191,999,18010,.15192824E-3,.4025E-4,0
HAWK-7B,2023-054R,2026-07-07T03:45:19.090080,15.27578846,.00022079,97.2702,73.2569,31.2593,328.8778,0,U,56193,999,18007,.16062988E-3,.4259E-4,0
HAWK-7C,2023-054Y,2026-07-06T18:19:11.400096,15.27574338,.00019225,97.2677,73.6361,19.6555,340.4758,0,U,56200,999,18001,.18248704E-3,.4848E-4,0
