HAWK-5A                 
1 52757U 22057AB  26188.42125099  .00013718  00000+0  22853-3 0  9991
2 52757  97.6627 348.5893 0004090   8.2298 351.9020 15.52132132229487
HAWK-6B                 
1 55324U 23011A   26188.57608579  .00002686  00000+0  11961-3 0  9990
2 55324  40.4971 233.1356 0003031 198.5523 161.5176 15.23109984190952
HAWK-6C                 
1 55326U 23011C   26188.57546469  .00002907  00000+0  12876-3 0  9993
2 55326  40.4958 229.9751 0003406 185.2736 174.8038 15.23110272190963
HAWK-6A                 
1 55327U 23011D   26188.57549785  .00002892  00000+0  12816-3 0  9995
2 55327  40.4968 231.6018 0002947 183.6819 176.3969 15.23111426190966
HAWK-7A                 
1 56191U 23054P   26188.35306109  .00004025  00000+0  15193-3 0  9990
2 56191  97.2674  75.1775 0002330   6.4575 353.6694 15.27577059180100
HAWK-7B                 
1 56193U 23054R   26188.15647095  .00004259  00000+0  16063-3 0  9998
2 56193  97.2702  73.2569 0002207  31.2593 328.8778 15.27578846180071
HAWK-7C                 
1 56200U 23054Y   26187.76332639  .00004848  00000+0  18249-3 0  9990
2 56200  97.2677  73.6361 0001922  19.6555 340.4758 15.27574338180010
